STARLINK-32735          
1 63044U 25034R   26068.84404493  .00037524  00000+0  12729-2 0  9992
2 63044  53.1570 269.9641 0001296  88.0091 272.1058 15.30194059 58938
TEVEL2-6                
1 63215U 25052F   26068.64958975  .00021046  00000+0  70909-3 0  9996
2 63215  97.4016 325.0381 0004769  95.6604 264.5181 15.30760889 54861
